{
    "links": {
        "self": "http://www.neowsapp.com/rest/v1/neo/3788081?api_key=iIulBulltgU6a56xZRHN4H3l9WmuAYTsLGpBGhQ2"
    },
    "id": "3788081",
    "neo_reference_id": "3788081",
    "name": "(2017 UL7)",
    "designation": "2017 UL7",
    "nasa_jpl_url": "http://ssd.jpl.nasa.gov/sbdb.cgi?sstr=3788081",
    "absolute_magnitude_h": 24.4,
    "estimated_diameter": {
        "kilometers": {
            "estimated_diameter_min": 0.0350392641,
            "estimated_diameter_max": 0.0783501764
        },
        "meters": {
            "estimated_diameter_min": 35.0392641108,
            "estimated_diameter_max": 78.3501764334
        },
        "miles": {
            "estimated_diameter_min": 0.0217723826,
            "estimated_diameter_max": 0.0486845275
        },
        "feet": {
            "estimated_diameter_min": 114.9582192654,
            "estimated_diameter_max": 257.0543928497
        }
    },
    "is_potentially_hazardous_asteroid": false,
    "close_approach_data": [
        {
            "close_approach_date": "2017-11-10",
            "close_approach_date_full": "2017-Nov-10 18:02",
            "epoch_date_close_approach": 1510336920000,
            "relative_velocity": {
                "kilometers_per_second": "14.9731261892",
                "kilometers_per_hour": "53903.2542809659",
                "miles_per_hour": "33493.3859725257"
            },
            "miss_distance": {
                "astronomical": "0.054534732",
                "lunar": "21.214010748",
                "kilometers": "8158279.74822084",
                "miles": "5069319.968053992"
            },
            "orbiting_body": "Earth"
        }
    ],
    "orbital_data": {
        "orbit_id": "4",
        "orbit_determination_date": "2020-10-28 06:40:27",
        "first_observation_date": "2017-10-11",
        "last_observation_date": "2017-10-30",
        "data_arc_in_days": 19,
        "observations_used": 37,
        "orbit_uncertainty": "8",
        "minimum_orbit_intersection": ".00130194",
        "jupiter_tisserand_invariant": "3.318",
        "epoch_osculation": "2458045.5",
        "eccentricity": ".6634445456539445",
        "semi_major_axis": "2.223265337888496",
        "inclination": "2.493695648869685",
        "ascending_node_longitude": "181.3782084977635",
        "orbital_period": "1210.836133344668",
        "perihelion_distance": ".7482520759248993",
        "perihelion_argument": "290.1935464586323",
        "aphelion_distance": "3.698278599852092",
        "perihelion_time": "2458108.814071077542",
        "mean_anomaly": "341.1757636229815",
        "mean_motion": ".2973152106103568",
        "equinox": "J2000",
        "orbit_class": {
            "orbit_class_type": "APO",
            "orbit_class_description": "Near-Earth asteroid orbits which cross the Earth’s orbit similar to that of 1862 Apollo",
            "orbit_class_range": "a (semi-major axis) > 1.0 AU; q (perihelion) < 1.017 AU"
        }
    },
    "is_sentry_object": false
}